ONEWEB-0270             
1 48988C 21060X   22357.24255045  .00002119  00000-0  55500-2 0  3570
2 48988  87.9067 122.0754 0001641  96.0886   1.9859 13.16591586    14
ONEWEB-0271             
1 48989C 21060Y   22357.08071017 -.00000468  00000-0 -12256-2 0  3576
2 48989  87.9065 122.0841 0002158 104.0475   7.3662 13.16593789    17
ONEWEB-0272             
1 48990C 21060Z   22357.39634674 -.00002911  00000-0 -76244-2 0  3578
2 48990  87.9060 122.0256 0001978 108.1389 308.4308 13.16597176    18
ONEWEB-0273             
1 48991C 21060AA  22357.04807127 -.00001256  00000-0 -32881-2 0  3576
2 48991  87.9073 122.1080 0001811 100.3380   6.4400 13.16598090    14
ONEWEB-0274             
1 48992C 21060AB  22357.07377729 -.00000208  00000-0 -54569-3 0  3574
2 48992  87.9067 122.1000 0001979 103.5894   4.9897 13.16591953    14
ONEWEB-0275             
1 48993C 21060AC  22357.43211063 -.00002172  00000-0 -56882-2 0  3574
2 48993  87.9075 122.0299 0001596 100.6943 315.3801 13.16602613    11
ONEWEB-0276             
1 48994C 21060AD  22357.46404350 -.00004305  00000-0 -11276-1 0  3578
2 48994  87.9047 122.0424 0001998  99.6788 307.6126 13.16598124    16
ONEWEB-0277             
1 48995C 21060AE  22357.03278192 -.00002637  00000-0 -69062-2 0  3578
2 48995  87.9053 122.1300 0002224 104.2244   0.1655 13.16596135    13
ONEWEB-0278             
1 48996C 21060AF  22357.24914767  .00001799  00000-0  47120-2 0  3574
2 48996  87.9068 122.0562 0001762 101.0520 358.3306 13.16589136    11
ONEWEB-0279             
1 48997C 21060AG  22357.25778193  .00001715  00000-0  44930-2 0  3571
2 48997  87.9069 122.0590 0001616 105.4223 354.7296 13.16592474    17
ONEWEB-0280             
1 48998C 21060AH  22357.41614998 -.00002757  00000-0 -72193-2 0  3573
2 48998  87.9068 122.0394 0002519 105.6537 314.7461 13.16602518    13
ONEWEB-0281             
1 48999C 21060AJ  22357.12623101  .00001400  00000-0  36658-2 0  3576
2 48999  87.9074 122.0820 0001484 116.9594 340.1017 13.16592117    16
ONEWEB-0282             
1 49000C 21060AK  22357.14289766  .00001385  00000-0  36287-2 0  3577
2 49000  87.9046 122.0916 0001940  99.2461 296.7348 13.16590040    14
ONEWEB-0283             
1 49001C 21060AL  22357.07205277 -.00000142  00000-0 -37236-3 0  3573
2 49001  87.9042 122.0929 0001980 104.5112   5.8582 13.16592324    18
ONEWEB-0284             
1 49002C 21060AM  22357.06542824 -.00000116  00000-0 -30294-3 0  3573
2 49002  87.9064 122.1407 0001862  95.1489  13.8875 13.16592097    17
ONEWEB-0285             
1 49075C 21075A   22357.13873100  .00002139  00000-0  59516-2 0  3573
2 49075  87.8948 243.3616 0001766  79.3464 357.0874 13.12447012    19
ONEWEB-0286             
1 49076C 21075B   22357.10604581  .00002687  00000-0  74790-2 0  3575
2 49076  87.8937 243.3662 0001033  89.3003 342.8238 13.12435112    10
ONEWEB-0287             
1 49077C 21075C   22357.34322174 -.00002370  00000-0 -61109-2 0  3578
2 49077  87.9125 258.5714 0001835  63.2693  43.5620 13.17652854    12
ONEWEB-0288             
1 49078C 21075D   22357.09148563  .00003887  00000-0  10819-1 0  3572
2 49078  87.8942 243.3680 0001367  74.2419 359.0368 13.12436594    11
ONEWEB-0289             
1 49079C 21075E   22357.13833748 -.00001782  00000-0 -45949-2 0  3571
2 49079  87.9121 258.5828 0001614  79.4817  47.9659 13.17650281    10
ONEWEB-0290             
1 49080C 21075F   22357.27898563 -.00000667  00000-0 -17200-2 0  3574
2 49080  87.9124 258.5780 0001896  66.5818  66.3697 13.17651195    14
ONEWEB-0291             
1 49081C 21075G   22357.33870785 -.00002661  00000-0 -68610-2 0  3575
2 49081  87.9123 258.5542 0001634  66.4057  41.0679 13.17653701    19
ONEWEB-0293             
1 49082C 21075H   22357.35539767 -.00001471  00000-0 -37934-2 0  3573
2 49082  87.9123 258.5360 0001848  65.7927  39.9757 13.17651138    18
ONEWEB-0294             
1 49083C 21075J   22357.26194859 -.00000986  00000-0 -27453-2 0  3578
2 49083  87.8937 243.3377 0001962  69.8664  63.3318 13.12440606    16
ONEWEB-0295             
1 49084C 21075K   22357.43317544 -.00000547  00000-0 -14113-2 0  3578
2 49084  87.9121 258.4791 0001539  51.8073  55.3659 13.17647541    16
ONEWEB-0296             
1 49085C 21075L   22357.23664766  .00000279  00000-0  77726-3 0  3578
2 49085  87.8948 243.3386 0001328  35.0505  53.5739 13.12446306    16
ONEWEB-0297             
1 49086C 21075M   22357.33630044 -.00002510  00000-0 -69877-2 0  3571
2 49086  87.8931 243.3190 0001424  97.3277 322.1390 13.12437921    17
ONEWEB-0298             
1 49087C 21075N   22357.35814072 -.00001305  00000-0 -33657-2 0  3577
2 49087  87.9120 258.5183 0001293  75.2598  28.7787 13.17650667    12
ONEWEB-0299             
1 49088C 21075P   22357.28976109 -.00000322  00000-0 -83058-3 0  3579
2 49088  87.9173 258.5252 0001431  72.3228  60.2434 13.17649629    16
ONEWEB-0300             
1 49089C 21075Q   22357.25189072 -.00000845  00000-0 -23511-2 0  3579
2 49089  87.8939 243.3321 0001401  89.3661 331.4418 13.12442158    19
ONEWEB-0301             
1 49090C 21075R   22357.31301340 -.00001023  00000-0 -28468-2 0  3577
2 49090  87.8942 243.3281 0001750  89.2076 330.1892 13.12447695    19
ONEWEB-0302             
1 49091C 21075S   22357.08694859  .00003910  00000-0  10881-1 0  3576
2 49091  87.8952 243.3754 0001498  67.9366  58.8719 13.12442525    19
ONEWEB-0304             
1 49092C 21075T   22357.34459905 -.00002241  00000-0 -57793-2 0  3579
2 49092  87.9123 258.5288 0001653  75.2766  30.6958 13.17653624    12
ONEWEB-0305             
1 49093C 21075U   22357.41302498 -.00002487  00000-0 -64130-2 0  3577
2 49093  87.9122 258.5576 0001287  65.2924  41.8522 13.17650477    14
ONEWEB-0308             
1 49094C 21075V   22357.29599951 -.00001535  00000-0 -42717-2 0  3576
2 49094  87.8953 243.3288 0001557  79.9925 339.0539 13.12450984    17
ONEWEB-0309             
1 49095C 21075W   22357.34149721 -.00002469  00000-0 -63672-2 0  3579
2 49095  87.9120 258.5772 0002099  64.7446  41.2334 13.17652806    10
ONEWEB-0310             
1 49096C 21075X   22357.37863838 -.00000539  00000-0 -15006-2 0  3579
2 49096  87.8912 243.3287 0001795  70.6780 323.5580 13.12441656    14
ONEWEB-0311             
1 49097C 21075Y   22357.34601109 -.00002134  00000-0 -55021-2 0  3572
2 49097  87.9119 258.5770 0001246  74.2588  31.1133 13.17651507    16
ONEWEB-0312             
1 49098C 21075Z   22357.28347638 -.00000449  00000-0 -11582-2 0  3571
2 49098  87.9123 258.5550 0001642  64.4751  67.6777 13.17650552    18
ONEWEB-0313             
1 49099C 21075AA  22357.10573331  .00002658  00000-0  68534-2 0  3575
2 49099  87.9117 258.6194 0001624  59.6519  16.0559 13.17645656    10
ONEWEB-0314             
1 49100C 21075AB  22357.33555970 -.00002803  00000-0 -72290-2 0  3570
2 49100  87.9120 258.5781 0001576  60.6084  46.6331 13.17655124    11
ONEWEB-0315             
1 49101C 21075AC  22357.35539766 -.00002745  00000-0 -76405-2 0  3575
2 49101  87.8948 243.3121 0001392  78.6358 340.8640 13.12447318    19
ONEWEB-0316             
1 49102C 21075AD  22357.32687914 -.00001791  00000-0 -45807-2 0  3574
2 49102  87.9204 228.1568 0001062  93.7614 323.5064 13.18214470    14
ONEWEB-0317             
1 49103C 21075AE  22357.35087220 -.00002892  00000-0 -80487-2 0  3578
2 49103  87.8946 243.3172 0001724  69.7530 348.3474 13.12445664    17
ONEWEB-0318             
1 49104C 21075AF  22357.24947174 -.00002005  00000-0 -51221-2 0  3570
2 49104  87.9206 228.1577 0001121  91.5510 327.2007 13.18283090    17
ONEWEB-0319             
1 49105C 21075AG  22357.27727267 -.00000732  00000-0 -18864-2 0  3574
2 49105  87.9124 258.5539 0000816  78.7773  53.3874 13.17655574    18
ONEWEB-0323             
1 49106C 21075AH  22357.27480740 -.00002488  00000-0 -69243-2 0  3574
2 49106  87.8938 243.3273 0001276  77.7788  26.2520 13.12444926    13
ONEWEB-0329             
1 49107C 21075AJ  22357.28000415 -.00000564  00000-0 -14538-2 0  3573
2 49107  87.9124 258.5523 0001502  68.0385  62.4529 13.17649693    10
ONEWEB-0330             
1 49108C 21075AK  22357.28208749 -.00000522  00000-0 -13460-2 0  3571
2 49108  87.9123 258.5705 0001611  68.3268  64.5811 13.17654332    19
ONEWEB-0292             
1 49186C 21083A   22357.23904350 -.00001508  00000-0 -41359-2 0  3575
2 49186  87.9017 212.9604 0001460  89.6895 329.7664 13.13465593    10
ONEWEB-0303             
1 49187C 21083B   22357.32861526 -.00002245  00000-0 -57233-2 0  3570
2 49187  87.9206 228.1445 0001244  81.8546   8.8713 13.18432697    14
ONEWEB-0306             
1 49188C 21083C   22357.23903192 -.00002496  00000-0 -63354-2 0  3576
2 49188  87.9203 228.1541 0001008  92.0043 327.2174 13.18729565    15
ONEWEB-0307             
1 49189C 21083D   22357.08418238  .00002447  00000-0  67091-2 0  3578
2 49189  87.9018 212.9908 0001458  84.5650 343.0782 13.13467488    16
ONEWEB-0320             
1 49190C 21083E   22357.32727266  .00006074  00000-0  15467-1 0  3570
2 49190  87.9206 228.1542 0001719  77.0577  15.6706 13.18494500    13
ONEWEB-0321             
1 49191C 21083F   22357.23385831 -.00000343  00000-0 -69138-3 0  3570
2 49191  87.9821 167.5455 0001922  91.3386 328.6318 13.34101690    18
ONEWEB-0322             
1 49192C 21083G   22357.15433285  .00000349  00000-0  95718-3 0  3576
2 49192  87.9022 212.9627 0002236  72.9552 346.3149 13.13463898    14
ONEWEB-0324             
1 49193C 21083H   22357.30746942 -.00002882  00000-0 -72828-2 0  3573
2 49193  87.9200 228.1438 0001004  86.6225 330.8156 13.19017833    19
ONEWEB-0325             
1 49194C 21083J   22357.23525877 -.00002512  00000-0 -63632-2 0  3571
2 49194  87.9181 228.0771 0001842  80.3014 338.0273 13.18859893    13
ONEWEB-0326             
1 49195C 21083K   22357.33038609 -.00002079  00000-0 -53055-2 0  3571
2 49195  87.9206 228.1234 0000794  77.9515  12.7614 13.18360272    13
